[{"OBJECT_NAME":"3CAT-5A","OBJECT_ID":"2020-061W","EPOCH":"2026-03-04T14:30:27.434880","MEAN_MOTION":15.42657857,"ECCENTRICITY":0.0003204,"INCLINATION":97.254,"RA_OF_ASC_NODE":126.8072,"ARG_OF_PERICENTER":126.3369,"MEAN_ANOMALY":233.8175,"EPHEMERIS_TYPE":0,"CLASSIFICATION_TYPE":"U","NORAD_CAT_ID":46292,"ELEMENT_SET_NO":999,"REV_AT_EPOCH":30488,"BSTAR":0.00051305,"MEAN_MOTION_DOT":0.00022306,"MEAN_MOTION_DDOT":0},{"OBJECT_NAME":"3CAT-5B","OBJECT_ID":"2020-061X","EPOCH":"2026-03-04T03:40:52.009536","MEAN_MOTION":15.4373967,"ECCENTRICITY":0.0003431,"INCLINATION":97.2542,"RA_OF_ASC_NODE":127.1497,"ARG_OF_PERICENTER":126.6317,"MEAN_ANOMALY":233.5247,"EPHEMERIS_TYPE":0,"CLASSIFICATION_TYPE":"U","NORAD_CAT_ID":46293,"ELEMENT_SET_NO":999,"REV_AT_EPOCH":30483,"BSTAR":0.0005978547,"MEAN_MOTION_DOT":0.00026987,"MEAN_MOTION_DDOT":0},{"OBJECT_NAME":"NAPA-1","OBJECT_ID":"2020-061BA","EPOCH":"2026-03-04T20:49:12.088128","MEAN_MOTION":15.56464627,"ECCENTRICITY":0.0001129,"INCLINATION":97.2595,"RA_OF_ASC_NODE":135.5042,"ARG_OF_PERICENTER":117.774,"MEAN_ANOMALY":242.3629,"EPHEMERIS_TYPE":0,"CLASSIFICATION_TYPE":"U","NORAD_CAT_ID":46320,"ELEMENT_SET_NO":999,"REV_AT_EPOCH":30545,"BSTAR":0.00079976,"MEAN_MOTION_DOT":0.00056791,"MEAN_MOTION_DDOT":0},{"OBJECT_NAME":"JILIN-1 GAOFEN 3B","OBJECT_ID":"2020-065A","EPOCH":"2026-03-04T18:20:56.580864","MEAN_MOTION":15.77940268,"ECCENTRICITY":0.0003721,"INCLINATION":97.2383,"RA_OF_ASC_NODE":121.0781,"ARG_OF_PERICENTER":151.2852,"MEAN_ANOMALY":208.8621,"EPHEMERIS_TYPE":0,"CLASSIFICATION_TYPE":"U","NORAD_CAT_ID":46454,"ELEMENT_SET_NO":999,"REV_AT_EPOCH":30394,"BSTAR":0.0011015,"MEAN_MOTION_DOT":0.00189383,"MEAN_MOTION_DDOT":0},{"OBJECT_NAME":"JILIN-1 GAOFEN 3E","OBJECT_ID":"2020-065D","EPOCH":"2026-03-04T19:18:55.069920","MEAN_MOTION":15.53288309,"ECCENTRICITY":0.0014688,"INCLINATION":97.2436,"RA_OF_ASC_NODE":114.7348,"ARG_OF_PERICENTER":181.2839,"MEAN_ANOMALY":178.8379,"EPHEMERIS_TYPE":0,"CLASSIFICATION_TYPE":"U","NORAD_CAT_ID":46457,"ELEMENT_SET_NO":999,"REV_AT_EPOCH":30350,"BSTAR":0.00081639,"MEAN_MOTION_DOT":0.00051824,"MEAN_MOTION_DDOT":0},{"OBJECT_NAME":"JILIN-1 GAOFEN 3F","OBJECT_ID":"2020-065E","EPOCH":"2026-03-04T19:43:12.764064","MEAN_MOTION":15.51755832,"ECCENTRICITY":0.0016219,"INCLINATION":97.2395,"RA_OF_ASC_NODE":112.4752,"ARG_OF_PERICENTER":170.6684,"MEAN_ANOMALY":189.4874,"EPHEMERIS_TYPE":0,"CLASSIFICATION_TYPE":"U","NORAD_CAT_ID":46458,"ELEMENT_SET_NO":999,"REV_AT_EPOCH":30347,"BSTAR":0.00077456,"MEAN_MOTION_DOT":0.00046546,"MEAN_MOTION_DDOT":0},{"OBJECT_NAME":"JILIN-1 GAOFEN 3G","OBJECT_ID":"2020-065F","EPOCH":"2026-03-04T18:30:02.537280","MEAN_MOTION":15.57277032,"ECCENTRICITY":0.0013949,"INCLINATION":97.2471,"RA_OF_ASC_NODE":117.9404,"ARG_OF_PERICENTER":83.8519,"MEAN_ANOMALY":276.4326,"EPHEMERIS_TYPE":0,"CLASSIFICATION_TYPE":"U","NORAD_CAT_ID":46459,"ELEMENT_SET_NO":999,"REV_AT_EPOCH":30362,"BSTAR":0.00083887,"MEAN_MOTION_DOT":0.00061692,"MEAN_MOTION_DDOT":0},{"OBJECT_NAME":"JILIN-1 GAOFEN 3H","OBJECT_ID":"2020-065G","EPOCH":"2026-03-04T18:47:15.530496","MEAN_MOTION":15.55799373,"ECCENTRICITY":0.0007683,"INCLINATION":97.2409,"RA_OF_ASC_NODE":114.7234,"ARG_OF_PERICENTER":24.6856,"MEAN_ANOMALY":335.4765,"EPHEMERIS_TYPE":0,"CLASSIFICATION_TYPE":"U","NORAD_CAT_ID":46460,"ELEMENT_SET_NO":999,"REV_AT_EPOCH":30359,"BSTAR":0.00079592,"MEAN_MOTION_DOT":0.00055203,"MEAN_MOTION_DDOT":0},{"OBJECT_NAME":"JILIN-1 GAOFEN 3J","OBJECT_ID":"2020-065J","EPOCH":"2026-03-04T18:58:37.920288","MEAN_MOTION":15.73985226,"ECCENTRICITY":0.0004524,"INCLINATION":97.2407,"RA_OF_ASC_NODE":120.4599,"ARG_OF_PERICENTER":144.6434,"MEAN_ANOMALY":215.5131,"EPHEMERIS_TYPE":0,"CLASSIFICATION_TYPE":"U","NORAD_CAT_ID":46462,"ELEMENT_SET_NO":999,"REV_AT_EPOCH":30390,"BSTAR":0.0010588,"MEAN_MOTION_DOT":0.00152608,"MEAN_MOTION_DDOT":0},{"OBJECT_NAME":"HAIYANG-2C","OBJECT_ID":"2020-066A","EPOCH":"2026-03-04T20:15:58.128192","MEAN_MOTION":13.83374514,"ECCENTRICITY":0.0012732,"INCLINATION":65.9967,"RA_OF_ASC_NODE":115.0772,"ARG_OF_PERICENTER":250.4289,"MEAN_ANOMALY":109.5405,"EPHEMERIS_TYPE":0,"CLASSIFICATION_TYPE":"U","NORAD_CAT_ID":46469,"ELEMENT_SET_NO":999,"REV_AT_EPOCH":27506,"BSTAR":0.00022784,"MEAN_MOTION_DOT":1.7e-6,"MEAN_MOTION_DDOT":0},{"OBJECT_NAME":"HJ-2A","OBJECT_ID":"2020-067A","EPOCH":"2026-03-04T19:18:15.744960","MEAN_MOTION":14.76548972,"ECCENTRICITY":0.0002188,"INCLINATION":97.889,"RA_OF_ASC_NODE":144.6218,"ARG_OF_PERICENTER":215.6688,"MEAN_ANOMALY":144.4377,"EPHEMERIS_TYPE":0,"CLASSIFICATION_TYPE":"U","NORAD_CAT_ID":46478,"ELEMENT_SET_NO":999,"REV_AT_EPOCH":29285,"BSTAR":0.00017693,"MEAN_MOTION_DOT":1.184e-5,"MEAN_MOTION_DDOT":0},{"OBJECT_NAME":"HJ-2B","OBJECT_ID":"2020-067B","EPOCH":"2026-03-04T20:10:51.674304","MEAN_MOTION":14.7653601,"ECCENTRICITY":0.0001887,"INCLINATION":97.8949,"RA_OF_ASC_NODE":145.6001,"ARG_OF_PERICENTER":94.4153,"MEAN_ANOMALY":265.7272,"EPHEMERIS_TYPE":0,"CLASSIFICATION_TYPE":"U","NORAD_CAT_ID":46479,"ELEMENT_SET_NO":999,"REV_AT_EPOCH":29286,"BSTAR":0.00014153,"MEAN_MOTION_DOT":9.37e-6,"MEAN_MOTION_DDOT":0},{"OBJECT_NAME":"GONETS-M 17","OBJECT_ID":"2020-068A","EPOCH":"2026-03-04T19:16:45.019776","MEAN_MOTION":12.4286964,"ECCENTRICITY":0.0021262,"INCLINATION":82.4946,"RA_OF_ASC_NODE":52.43,"ARG_OF_PERICENTER":263.5153,"MEAN_ANOMALY":96.3506,"EPHEMERIS_TYPE":0,"CLASSIFICATION_TYPE":"U","NORAD_CAT_ID":46486,"ELEMENT_SET_NO":999,"REV_AT_EPOCH":24619,"BSTAR":0.00086624,"MEAN_MOTION_DOT":1.3e-6,"MEAN_MOTION_DDOT":0},{"OBJECT_NAME":"GONETS-M 18","OBJECT_ID":"2020-068B","EPOCH":"2026-03-04T20:20:17.280672","MEAN_MOTION":12.42869608,"ECCENTRICITY":0.0018547,"INCLINATION":82.4901,"RA_OF_ASC_NODE":51.5597,"ARG_OF_PERICENTER":259.5866,"MEAN_ANOMALY":100.3123,"EPHEMERIS_TYPE":0,"CLASSIFICATION_TYPE":"U","NORAD_CAT_ID":46487,"ELEMENT_SET_NO":999,"REV_AT_EPOCH":24618,"BSTAR":0.0010917,"MEAN_MOTION_DOT":1.61e-6,"MEAN_MOTION_DDOT":0},{"OBJECT_NAME":"GONETS-M 19","OBJECT_ID":"2020-068C","EPOCH":"2026-03-04T19:47:18.750048","MEAN_MOTION":12.42888669,"ECCENTRICITY":0.0012356,"INCLINATION":82.4925,"RA_OF_ASC_NODE":52.0054,"ARG_OF_PERICENTER":276.3648,"MEAN_ANOMALY":83.6024,"EPHEMERIS_TYPE":0,"CLASSIFICATION_TYPE":"U","NORAD_CAT_ID":46488,"ELEMENT_SET_NO":999,"REV_AT_EPOCH":24628,"BSTAR":0.00054092,"MEAN_MOTION_DOT":8.5e-7,"MEAN_MOTION_DDOT":0},{"OBJECT_NAME":"DEKART","OBJECT_ID":"2020-068H","EPOCH":"2026-03-04T20:23:03.180768","MEAN_MOTION":15.34685905,"ECCENTRICITY":0.0007622,"INCLINATION":97.877,"RA_OF_ASC_NODE":65.8428,"ARG_OF_PERICENTER":301.8272,"MEAN_ANOMALY":58.2227,"EPHEMERIS_TYPE":0,"CLASSIFICATION_TYPE":"U","NORAD_CAT_ID":46493,"ELEMENT_SET_NO":999,"REV_AT_EPOCH":29975,"BSTAR":0.00058922,"MEAN_MOTION_DOT":0.00019766,"MEAN_MOTION_DDOT":0},{"OBJECT_NAME":"NORBI","OBJECT_ID":"2020-068J","EPOCH":"2026-03-04T19:59:58.208640","MEAN_MOTION":15.43698514,"ECCENTRICITY":0.0004748,"INCLINATION":97.8688,"RA_OF_ASC_NODE":70.9464,"ARG_OF_PERICENTER":276.995,"MEAN_ANOMALY":83.0757,"EPHEMERIS_TYPE":0,"CLASSIFICATION_TYPE":"U","NORAD_CAT_ID":46494,"ELEMENT_SET_NO":999,"REV_AT_EPOCH":30008,"BSTAR":0.00076899,"MEAN_MOTION_DOT":0.00034722,"MEAN_MOTION_DDOT":0}]
