3CAT-5A                 
1 46292U 20061W   26063.60448420  .00022306  00000+0  51305-3 0  9996
2 46292  97.2540 126.8072 0003204 126.3369 233.8175 15.42657857304889
3CAT-5B                 
1 46293U 20061X   26063.15337974  .00026987  00000+0  59785-3 0  9997
2 46293  97.2542 127.1497 0003431 126.6317 233.5247 15.43739670304832
NAPA-1                  
1 46320U 20061BA  26063.86750102  .00056791  00000+0  79976-3 0  9998
2 46320  97.2595 135.5042 0001129 117.7740 242.3629 15.56464627305455
JILIN-1 GAOFEN 3B       
1 46454U 20065A   26063.76454376  .00189383  00000+0  11015-2 0  9996
2 46454  97.2383 121.0781 0003721 151.2852 208.8621 15.77940268303949
JILIN-1 GAOFEN 3E       
1 46457U 20065D   26063.80480405  .00051824  00000+0  81639-3 0  9994
2 46457  97.2436 114.7348 0014688 181.2839 178.8379 15.53288309303504
JILIN-1 GAOFEN 3F       
1 46458U 20065E   26063.82167551  .00046546  00000+0  77456-3 0  9998
2 46458  97.2395 112.4752 0016219 170.6684 189.4874 15.51755832303477
JILIN-1 GAOFEN 3G       
1 46459U 20065F   26063.77086270  .00061692  00000+0  83887-3 0  9995
2 46459  97.2471 117.9404 0013949  83.8519 276.4326 15.57277032303629
JILIN-1 GAOFEN 3H       
1 46460U 20065G   26063.78281864  .00055203  00000+0  79592-3 0  9993
2 46460  97.2409 114.7234 0007683  24.6856 335.4765 15.55799373303597
JILIN-1 GAOFEN 3J       
1 46462U 20065J   26063.79071667  .00152608  00000+0  10588-2 0  9990
2 46462  97.2407 120.4599 0004524 144.6434 215.5131 15.73985226303905
HAIYANG-2C              
1 46469U 20066A   26063.84442278  .00000170  00000+0  22784-3 0  9992
2 46469  65.9967 115.0772 0012732 250.4289 109.5405 13.83374514275064
HJ-2A                   
1 46478U 20067A   26063.80434890  .00001184  00000+0  17693-3 0  9999
2 46478  97.8890 144.6218 0002188 215.6688 144.4377 14.76548972292852
HJ-2B                   
1 46479U 20067B   26063.84087586  .00000937  00000+0  14153-3 0  9993
2 46479  97.8949 145.6001 0001887  94.4153 265.7272 14.76536010292866
GONETS-M 17             
1 46486U 20068A   26063.80329884  .00000130  00000+0  86624-3 0  9995
2 46486  82.4946  52.4300 0021262 263.5153  96.3506 12.42869640246198
GONETS-M 18             
1 46487U 20068B   26063.84742223  .00000161  00000+0  10917-2 0  9991
2 46487  82.4901  51.5597 0018547 259.5866 100.3123 12.42869608246180
GONETS-M 19             
1 46488U 20068C   26063.82452257  .00000085  00000+0  54092-3 0  9993
2 46488  82.4925  52.0054 0012356 276.3648  83.6024 12.42888669246280
DEKART                  
1 46493U 20068H   26063.84934237  .00019766  00000+0  58922-3 0  9996
2 46493  97.8770  65.8428 0007622 301.8272  58.2227 15.34685905299753
NORBI                   
1 46494U 20068J   26063.83331260  .00034722  00000+0  76899-3 0  9995
2 46494  97.8688  70.9464 0004748 276.9950  83.0757 15.43698514300083
